start=new Date('2022-08-02T00:00:00.000Z').valueOf();
sats=[{"OBJECT_ID":"2022-041P","CENTER_NAME":"EARTH","MEAN_ELEMENT_THEORY":"SGP4","INCLINATION":"53.2146","MEAN_MOTION_DOT":"0.00020626","TLE_LINE2":"2 52274  53.2146 255.8390 0001813  52.1165 134.6119 15.08822050  1308","ARG_OF_PERICENTER":"52.1165","REF_FRAME":"TEME","LAUNCH_DATE":"2022-04-21","MEAN_MOTION":"15.08822050","DECAY_DATE":null,"COUNTRY_CODE":"US","MEAN_ANOMALY":"134.6119","CLASSIFICATION_TYPE":"U","EPHEMERIS_TYPE":"0","RA_OF_ASC_NODE":"255.8390","OBJECT_TYPE":"PAYLOAD","TIME_SYSTEM":"UTC","PERIOD":"95.439","APOAPSIS":"541.054","SEMIMAJOR_AXIS":"6917.935","FILE":"3527139","TLE_LINE1":"1 52274U 22041P   22213.91667824  .00020626  00000-0  13109-2 0  9994","RCS_SIZE":"LARGE","BSTAR":"0.00131090000000","NORAD_CAT_ID":"52274","ECCENTRICITY":"0.00018130","PERIAPSIS":"538.546","REV_AT_EPOCH":"130","ELEMENT_SET_NO":"999","MEAN_MOTION_DDOT":"0.0000000000000","SITE":"AFETR","GP_ID":"209392398","EPOCH":"2022-08-01T22:00:00.999936","OBJECT_NAME":"STARLINK-3790"},{"CENTER_NAME":"EARTH","MEAN_ELEMENT_THEORY":"SGP4","OBJECT_ID":"2022-041Q","INCLINATION":"53.2156","MEAN_MOTION_DOT":"0.00020640","TLE_LINE2":"2 52275  53.2156 255.8394 0001605  47.3416  99.2999 15.08820197  1300","ARG_OF_PERICENTER":"47.3416","MEAN_MOTION":"15.08820197","DECAY_DATE":null,"REF_FRAME":"TEME","LAUNCH_DATE":"2022-04-21","MEAN_ANOMALY":"99.2999","COUNTRY_CODE":"US","CLASSIFICATION_TYPE":"U","EPHEMERIS_TYPE":"0","RA_OF_ASC_NODE":"255.8394","OBJECT_TYPE":"PAYLOAD","PERIOD":"95.439","TIME_SYSTEM":"UTC","SEMIMAJOR_AXIS":"6917.941","APOAPSIS":"540.916","FILE":"3527139","TLE_LINE1":"1 52275U 22041Q   22213.91667824  .00020640  00000-0  13118-2 0  9991","BSTAR":"0.00131180000000","RCS_SIZE":"LARGE","ECCENTRICITY":"0.00016050","NORAD_CAT_ID":"52275","PERIAPSIS":"538.696","REV_AT_EPOCH":"130","ELEMENT_SET_NO":"999","MEAN_MOTION_DDOT":"0.0000000000000","SITE":"AFETR","GP_ID":"209392408","EPOCH":"2022-08-01T22:00:00.999936","OBJECT_NAME":"STARLINK-3784"},{"FILE":"3527139","TLE_LINE1":"1 52276U 22041R   22213.91667824  .00021252  00000-0  13503-2 0  9990","RCS_SIZE":"LARGE","BSTAR":"0.00135030000000","APOAPSIS":"541.101","SEMIMAJOR_AXIS":"6917.961","MEAN_MOTION_DDOT":"0.0000000000000","ELEMENT_SET_NO":"999","SITE":"AFETR","GP_ID":"209392898","EPOCH":"2022-08-01T22:00:00.999936","OBJECT_NAME":"STARLINK-3778","NORAD_CAT_ID":"52276","ECCENTRICITY":"0.00018430","PERIAPSIS":"538.551","REV_AT_EPOCH":"130","TLE_LINE2":"2 52276  53.2174 255.8485 0001843  44.1631 162.6056 15.08813713  1305","ARG_OF_PERICENTER":"44.1631","OBJECT_ID":"2022-041R","MEAN_ELEMENT_THEORY":"SGP4","CENTER_NAME":"EARTH","INCLINATION":"53.2174","MEAN_MOTION_DOT":"0.00021252","EPHEMERIS_TYPE":"0","RA_OF_ASC_NODE":"255.8485","OBJECT_TYPE":"PAYLOAD","PERIOD":"95.439","TIME_SYSTEM":"UTC","REF_FRAME":"TEME","LAUNCH_DATE":"2022-04-21","DECAY_DATE":null,"MEAN_MOTION":"15.08813713","MEAN_ANOMALY":"162.6056","COUNTRY_CODE":"US","CLASSIFICATION_TYPE":"U"},{"TLE_LINE2":"2 52277  53.2144 255.8404 0001742  51.0176 115.6846 15.08824166  1302","ARG_OF_PERICENTER":"51.0176","MEAN_ELEMENT_THEORY":"SGP4","CENTER_NAME":"EARTH","OBJECT_ID":"2022-041S","INCLINATION":"53.2144","MEAN_MOTION_DOT":"0.00020261","EPHEMERIS_TYPE":"0","RA_OF_ASC_NODE":"255.8404","OBJECT_TYPE":"PAYLOAD","TIME_SYSTEM":"UTC","PERIOD":"95.439","DECAY_DATE":null,"MEAN_MOTION":"15.08824166","LAUNCH_DATE":"2022-04-21","REF_FRAME":"TEME","COUNTRY_CODE":"US","MEAN_ANOMALY":"115.6846","CLASSIFICATION_TYPE":"U","FILE":"3527139","TLE_LINE1":"1 52277U 22041S   22213.91667824  .00020261  00000-0  12880-2 0  9997","BSTAR":"0.00128800000000","RCS_SIZE":"LARGE","SEMIMAJOR_AXIS":"6917.929","APOAPSIS":"540.999","ELEMENT_SET_NO":"999","MEAN_MOTION_DDOT":"0.0000000000000","SITE":"AFETR","GP_ID":"209392533","EPOCH":"2022-08-01T22:00:00.999936","OBJECT_NAME":"STARLINK-3787","ECCENTRICITY":"0.00017420","NORAD_CAT_ID":"52277","PERIAPSIS":"538.589","REV_AT_EPOCH":"130"},{"MEAN_MOTION_DOT":"0.00021046","INCLINATION":"53.2167","OBJECT_ID":"2022-041T","CENTER_NAME":"EARTH","MEAN_ELEMENT_THEORY":"SGP4","ARG_OF_PERICENTER":"44.3041","TLE_LINE2":"2 52278  53.2167 255.8438 0001840  44.3041 182.4632 15.08828753  1301","CLASSIFICATION_TYPE":"U","MEAN_ANOMALY":"182.4632","COUNTRY_CODE":"US","LAUNCH_DATE":"2022-04-21","REF_FRAME":"TEME","DECAY_DATE":null,"MEAN_MOTION":"15.08828753","TIME_SYSTEM":"UTC","PERIOD":"95.438","RA_OF_ASC_NODE":"255.8438","OBJECT_TYPE":"PAYLOAD","EPHEMERIS_TYPE":"0","APOAPSIS":"541.053","SEMIMAJOR_AXIS":"6917.915","RCS_SIZE":"LARGE","BSTAR":"0.00133690000000","TLE_LINE1":"1 52278U 22041T   22213.91667824  .00021046  00000-0  13369-2 0  9993","FILE":"3527139","REV_AT_EPOCH":"130","PERIAPSIS":"538.507","NORAD_CAT_ID":"52278","ECCENTRICITY":"0.00018400","OBJECT_NAME":"STARLINK-3780","EPOCH":"2022-08-01T22:00:00.999936","GP_ID":"209392013","SITE":"AFETR","MEAN_MOTION_DDOT":"0.0000000000000","ELEMENT_SET_NO":"999"},{"DECAY_DATE":null,"MEAN_MOTION":"15.08814226","REF_FRAME":"TEME","LAUNCH_DATE":"2022-04-21","CLASSIFICATION_TYPE":"U","COUNTRY_CODE":"US","MEAN_ANOMALY":"124.5963","EPHEMERIS_TYPE":"0","TIME_SYSTEM":"UTC","PERIOD":"95.439","OBJECT_TYPE":"PAYLOAD","RA_OF_ASC_NODE":"255.8384","MEAN_ELEMENT_THEORY":"SGP4","CENTER_NAME":"EARTH","OBJECT_ID":"2022-041U","MEAN_MOTION_DOT":"0.00020092","INCLINATION":"53.2159","ARG_OF_PERICENTER":"56.9809","TLE_LINE2":"2 52279  53.2159 255.8384 0001706  56.9809 124.5963 15.08814226  1309","PERIAPSIS":"538.644","ECCENTRICITY":"0.00017060","NORAD_CAT_ID":"52279","REV_AT_EPOCH":"130","MEAN_MOTION_DDOT":"0.0000000000000","ELEMENT_SET_NO":"999","EPOCH":"2022-08-01T22:00:00.999936","OBJECT_NAME":"STARLINK-3686","GP_ID":"209392023","SITE":"AFETR","SEMIMAJOR_AXIS":"6917.959","APOAPSIS":"541.004","BSTAR":"0.00127780000000","RCS_SIZE":"LARGE","TLE_LINE1":"1 52279U 22041U   22213.91667824  .00020092  00000-0  12778-2 0  9997","FILE":"3527139"},{"BSTAR":"0.00140820000000","RCS_SIZE":"LARGE","FILE":"3527139","TLE_LINE1":"1 52280U 22041V   22213.91667824  .00022192  00000-0  14082-2 0  9992","SEMIMAJOR_AXIS":"6917.893","APOAPSIS":"541.172","OBJECT_NAME":"STARLINK-3764","EPOCH":"2022-08-01T22:00:00.999936","SITE":"AFETR","GP_ID":"209392773","MEAN_MOTION_DDOT":"0.0000000000000","ELEMENT_SET_NO":"999","REV_AT_EPOCH":"130","PERIAPSIS":"538.343","ECCENTRICITY":"0.00020450","NORAD_CAT_ID":"52280","ARG_OF_PERICENTER":"40.1455","TLE_LINE2":"2 52280  53.2187 255.8535 0002045  40.1455 246.6136 15.08835951  1305","MEAN_MOTION_DOT":"0.00022192","INCLINATION":"53.2187","CENTER_NAME":"EARTH","MEAN_ELEMENT_THEORY":"SGP4","OBJECT_ID":"2022-041V","PERIOD":"95.438","TIME_SYSTEM":"UTC","RA_OF_ASC_NODE":"255.8535","OBJECT_TYPE":"PAYLOAD","EPHEMERIS_TYPE":"0","CLASSIFICATION_TYPE":"U","COUNTRY_CODE":"US","MEAN_ANOMALY":"246.6136","MEAN_MOTION":"15.08835951","DECAY_DATE":null,"REF_FRAME":"TEME","LAUNCH_DATE":"2022-04-21"},{"TIME_SYSTEM":"UTC","PERIOD":"95.439","OBJECT_TYPE":"PAYLOAD","RA_OF_ASC_NODE":"255.8406","EPHEMERIS_TYPE":"0","CLASSIFICATION_TYPE":"U","COUNTRY_CODE":"US","MEAN_ANOMALY":"157.8123","DECAY_DATE":null,"MEAN_MOTION":"15.08824870","REF_FRAME":"TEME","LAUNCH_DATE":"2022-04-21","ARG_OF_PERICENTER":"43.7957","TLE_LINE2":"2 52281  53.2154 255.8406 0001986  43.7957 157.8123 15.08824870  1303","MEAN_MOTION_DOT":"0.00003820","INCLINATION":"53.2154","CENTER_NAME":"EARTH","MEAN_ELEMENT_THEORY":"SGP4","OBJECT_ID":"2022-041W","OBJECT_NAME":"STARLINK-3779","EPOCH":"2022-08-01T22:00:00.999936","SITE":"AFETR","GP_ID":"209392147","ELEMENT_SET_NO":"999","MEAN_MOTION_DDOT":"0.0000000000000","REV_AT_EPOCH":"130","PERIAPSIS":"538.418","ECCENTRICITY":"0.00019860","NORAD_CAT_ID":"52281","BSTAR":"0.00025811000000","RCS_SIZE":"LARGE","TLE_LINE1":"1 52281U 22041W   22213.91667824  .00003820  00000-0  25811-3 0  9993","FILE":"3527139","SEMIMAJOR_AXIS":"6917.927","APOAPSIS":"541.166"},{"MEAN_MOTION_DDOT":"0.0000000000000","ELEMENT_SET_NO":"999","EPOCH":"2022-08-01T22:00:00.999936","OBJECT_NAME":"STARLINK-3783","SITE":"AFETR","GP_ID":"209392399","PERIAPSIS":"538.512","NORAD_CAT_ID":"52282","ECCENTRICITY":"0.00018680","REV_AT_EPOCH":"130","RCS_SIZE":"LARGE","BSTAR":"0.00220110000000","FILE":"3527139","TLE_LINE1":"1 52282U 22041X   22213.91667824  .00034898  00000-0  22011-2 0  9991","APOAPSIS":"541.097","SEMIMAJOR_AXIS":"6917.939","EPHEMERIS_TYPE":"0","TIME_SYSTEM":"UTC","PERIOD":"95.439","RA_OF_ASC_NODE":"245.8560","OBJECT_TYPE":"PAYLOAD","LAUNCH_DATE":"2022-04-21","REF_FRAME":"TEME","DECAY_DATE":null,"MEAN_MOTION":"15.08820702","CLASSIFICATION_TYPE":"U","MEAN_ANOMALY":"278.8797","COUNTRY_CODE":"US","ARG_OF_PERICENTER":"42.8847","TLE_LINE2":"2 52282  53.2130 245.8560 0001868  42.8847 278.8797 15.08820702  1306","OBJECT_ID":"2022-041X","MEAN_ELEMENT_THEORY":"SGP4","CENTER_NAME":"EARTH","MEAN_MOTION_DOT":"0.00034898","INCLINATION":"53.2130"},{"ARG_OF_PERICENTER":"48.0466","TLE_LINE2":"2 52283  53.2179 255.8480 0001857  48.0466 198.7308 15.08818835  1307","OBJECT_ID":"2022-041Y","MEAN_ELEMENT_THEORY":"SGP4","CENTER_NAME":"EARTH","MEAN_MOTION_DOT":"0.00021196","INCLINATION":"53.2179","EPHEMERIS_TYPE":"0","TIME_SYSTEM":"UTC","PERIOD":"95.439","RA_OF_ASC_NODE":"255.8480","OBJECT_TYPE":"PAYLOAD","REF_FRAME":"TEME","LAUNCH_DATE":"2022-04-21","DECAY_DATE":null,"MEAN_MOTION":"15.08818835","CLASSIFICATION_TYPE":"U","COUNTRY_CODE":"US","MEAN_ANOMALY":"198.7308","RCS_SIZE":"LARGE","BSTAR":"0.00134660000000","TLE_LINE1":"1 52283U 22041Y   22213.91667824  .00021196  00000-0  13466-2 0  9993","FILE":"3527139","APOAPSIS":"541.095","SEMIMAJOR_AXIS":"6917.945","ELEMENT_SET_NO":"999","MEAN_MOTION_DDOT":"0.0000000000000","OBJECT_NAME":"STARLINK-3789","EPOCH":"2022-08-01T22:00:00.999936","GP_ID":"209392409","SITE":"AFETR","PERIAPSIS":"538.525","NORAD_CAT_ID":"52283","ECCENTRICITY":"0.00018570","REV_AT_EPOCH":"130"}];
